{"type": "FeatureCollection", "features": [ {"type": "Feature", "properties": {"norad_id": 29906, "name": "FENGYUN 1C DEB", "group": "fengyun-1c-debris", "lat": -43.90739222422004, "lon": -83.26167174857967, "alt_km": 744.8544543844473, "timestamp": "2025-12-27T09:28:56.748509+00:00", "meta": {"OBJECT_NAME": "FENGYUN 1C DEB", "OBJECT_ID": "1999-025HC", "EPOCH": "2025-12-26T19:12:12.922848", "MEAN_MOTION": 14.49871799, "ECCENTRICITY": 0.0036116, "INCLINATION": 98.7047, "RA_OF_ASC_NODE": 104.6045, "ARG_OF_PERICENTER": 107.7804, "MEAN_ANOMALY": 252.7335, "EPHEMERIS_TYPE": 0, "CLASSIFICATION_TYPE": "U", "NORAD_CAT_ID": 29906, "ELEMENT_SET_NO": 999, "REV_AT_EPOCH": 98361, "BSTAR": 0.0022834594, "MEAN_MOTION_DOT": 8.855e-05, "MEAN_MOTION_DDOT": 0}, "tle": {"line1": "1 29906U 99025HC  25360.80014957  .00008855  00000+0  22835-2 0  9998", "line2": "2 29906  98.7047 104.6045 0036116 107.7804 252.7335 14.49871799983610"}}, "geometry": {"type": "Point", "coordinates": [-83.26167174857967, -43.90739222422004]}}, {"type": "Feature", "properties": {"norad_id": 29907, "name": "FENGYUN 1C DEB", "group": "fengyun-1c-debris", "lat": 16.628247111002278, "lon": -108.95742907956084, "alt_km": 810.8681061536736, "timestamp": "2025-12-27T09:28:56.748531+00:00", "meta": {"OBJECT_NAME": "FENGYUN 1C DEB", "OBJECT_ID": "1999-025HD", "EPOCH": "2025-12-27T03:51:54.401184", "MEAN_MOTION": 14.11716633, "ECCENTRICITY": 0.0084944, "INCLINATION": 99.1107, "RA_OF_ASC_NODE": 68.0581, "ARG_OF_PERICENTER": 209.4594, "MEAN_ANOMALY": 205.4256, "EPHEMERIS_TYPE": 0, "CLASSIFICATION_TYPE": "U", "NORAD_CAT_ID": 29907, "ELEMENT_SET_NO": 999, "REV_AT_EPOCH": 96802, "BSTAR": 0.0015734, "MEAN_MOTION_DOT": 2.918e-05, "MEAN_MOTION_DDOT": 0}, "tle": {"line1": "1 29907U 99025HD  25361.16104631  .00002918  00000+0  15734-2 0  9992", "line2": "2 29907  99.1107  68.0581 0084944 209.4594 205.4256 14.11716633968028"}}, "geometry": {"type": "Point", "coordinates": [-108.95742907956084, 16.628247111002278]}}, {"type": "Feature", "properties": {"norad_id": 29909, "name": "FENGYUN 1C DEB", "group": "fengyun-1c-debris", "lat": -47.62212181306538, "lon": -83.9011485223691, "alt_km": 719.885941723961, "timestamp": "2025-12-27T09:28:56.748541+00:00", "meta": {"OBJECT_NAME": "FENGYUN 1C DEB", "OBJECT_ID": "1999-025HF", "EPOCH": "2025-12-26T06:10:44.226048", "MEAN_MOTION": 14.55342823, "ECCENTRICITY": 0.0038203, "INCLINATION": 98.6341, "RA_OF_ASC_NODE": 104.5096, "ARG_OF_PERICENTER": 332.3824, "MEAN_ANOMALY": 59.3588, "EPHEMERIS_TYPE": 0, "CLASSIFICATION_TYPE": "U", "NORAD_CAT_ID": 29909, "ELEMENT_SET_NO": 999, "REV_AT_EPOCH": 98602, "BSTAR": 0.0020345, "MEAN_MOTION_DOT": 8.872e-05, "MEAN_MOTION_DDOT": 0}, "tle": {"line1": "1 29909U 99025HF  25360.25745632  .00008872  00000+0  20345-2 0  9994", "line2": "2 29909  98.6341 104.5096 0038203 332.3824  59.3588 14.55342823986028"}}, "geometry": {"type": "Point", "coordinates": [-83.9011485223691, -47.62212181306538]}}, {"type": "Feature", "properties": {"norad_id": 29911, "name": "FENGYUN 1C DEB", "group": "fengyun-1c-debris", "lat": -75.61196398178419, "lon": -172.4600596626957, "alt_km": 853.14276157737, "timestamp": "2025-12-27T09:28:56.748552+00:00", "meta": {"OBJECT_NAME": "FENGYUN 1C DEB", "OBJECT_ID": "1999-025HH", "EPOCH": "2025-12-27T01:46:47.042112", "MEAN_MOTION": 14.18897331, "ECCENTRICITY": 0.0027407, "INCLINATION": 98.7142, "RA_OF_ASC_NODE": 43.9417, "ARG_OF_PERICENTER": 111.2865, "MEAN_ANOMALY": 308.554, "EPHEMERIS_TYPE": 0, "CLASSIFICATION_TYPE": "U", "NORAD_CAT_ID": 29911, "ELEMENT_SET_NO": 999, "REV_AT_EPOCH": 97634, "BSTAR": 0.00078518, "MEAN_MOTION_DOT": 1.598e-05, "MEAN_MOTION_DDOT": 0}, "tle": {"line1": "1 29911U 99025HH  25361.07415558  .00001598  00000+0  78518-3 0  9993", "line2": "2 29911  98.7142  43.9417 0027407 111.2865 308.5540 14.18897331976346"}}, "geometry": {"type": "Point", "coordinates": [-172.4600596626957, -75.61196398178419]}}, {"type": "Feature", "properties": {"norad_id": 29912, "name": "FENGYUN 1C DEB", "group": "fengyun-1c-debris", "lat": 49.996935866460994, "lon": 88.65449475867959, "alt_km": 761.4027454003071, "timestamp": "2025-12-27T09:28:56.748562+00:00", "meta": {"OBJECT_NAME": "FENGYUN 1C DEB", "OBJECT_ID": "1999-025HJ", "EPOCH": "2025-12-26T18:52:44.090688", "MEAN_MOTION": 14.43172072, "ECCENTRICITY": 0.00433354, "INCLINATION": 98.7369, "RA_OF_ASC_NODE": 98.5898, "ARG_OF_PERICENTER": 178.5203, "MEAN_ANOMALY": 313.2595, "EPHEMERIS_TYPE": 0, "CLASSIFICATION_TYPE": "U", "NORAD_CAT_ID": 29912, "ELEMENT_SET_NO": 999, "REV_AT_EPOCH": 98241, "BSTAR": 0.0021463494, "MEAN_MOTION_DOT": 7.255e-05, "MEAN_MOTION_DDOT": 0}, "tle": {"line1": "1 29912U 99025HJ  25360.78662142  .00007255  00000+0  21463-2 0  9996", "line2": "2 29912  98.7369  98.5898 0043335 178.5203 313.2595 14.43172072982411"}}, "geometry": {"type": "Point", "coordinates": [88.65449475867959, 49.996935866460994]}}, {"type": "Feature", "properties": {"norad_id": 29913, "name": "FENGYUN 1C DEB", "group": "fengyun-1c-debris", "lat": 76.94937213461672, "lon": -42.0196040035706, "alt_km": 899.5726911291213, "timestamp": "2025-12-27T09:28:56.748572+00:00", "meta": {"OBJECT_NAME": "FENGYUN 1C DEB", "OBJECT_ID": "1999-025HK", "EPOCH": "2025-12-26T23:07:16.971168", "MEAN_MOTION": 14.07397587, "ECCENTRICITY": 0.0062034, "INCLINATION": 98.7881, "RA_OF_ASC_NODE": 359.424, "ARG_OF_PERICENTER": 230.7755, "MEAN_ANOMALY": 183.8233, "EPHEMERIS_TYPE": 0, "CLASSIFICATION_TYPE": "U", "NORAD_CAT_ID": 29913, "ELEMENT_SET_NO": 999, "REV_AT_EPOCH": 97165, "BSTAR": 0.00030336, "MEAN_MOTION_DOT": 4.76e-06, "MEAN_MOTION_DDOT": 0}, "tle": {"line1": "1 29913U 99025HK  25360.96339087  .00000476  00000+0  30336-3 0  9994", "line2": "2 29913  98.7881 359.4240 0062034 230.7755 183.8233 14.07397587971655"}}, "geometry": {"type": "Point", "coordinates": [-42.0196040035706, 76.94937213461672]}}, {"type": "Feature", "properties": {"norad_id": 29914, "name": "FENGYUN 1C DEB", "group": "fengyun-1c-debris", "lat": -3.7368039459788718, "lon": 30.139168615781735, "alt_km": 881.1074963723077, "timestamp": "2025-12-27T09:28:56.748582+00:00", "meta": {"OBJECT_NAME": "FENGYUN 1C DEB", "OBJECT_ID": "1999-025HL", "EPOCH": "2025-12-27T01:12:06.518016", "MEAN_MOTION": 14.03132911, "ECCENTRICITY": 0.0036581, "INCLINATION": 98.842, "RA_OF_ASC_NODE": 29.2215, "ARG_OF_PERICENTER": 76.1697, "MEAN_ANOMALY": 338.718, "EPHEMERIS_TYPE": 0, "CLASSIFICATION_TYPE": "U", "NORAD_CAT_ID": 29914, "ELEMENT_SET_NO": 999, "REV_AT_EPOCH": 96987, "BSTAR": 2.8561e-05, "MEAN_MOTION_DOT": 2e-08, "MEAN_MOTION_DDOT": 0}, "tle": {"line1": "1 29914U 99025HL  25361.05007544  .00000002  00000+0  28561-4 0  9999", "line2": "2 29914  98.8420  29.2215 0036581  76.1697 338.7180 14.03132911969872"}}, "geometry": {"type": "Point", "coordinates": [30.139168615781735, -3.7368039459788718]}}, {"type": "Feature", "properties": {"norad_id": 29916, "name": "FENGYUN 1C DEB", "group": "fengyun-1c-debris", "lat": 79.14506933532364, "lon": -37.92697191687927, "alt_km": 1183.5775052352237, "timestamp": "2025-12-27T09:28:56.748593+00:00", "meta": {"OBJECT_NAME": "FENGYUN 1C DEB", "OBJECT_ID": "1999-025HN", "EPOCH": "2025-12-27T00:29:45.021408", "MEAN_MOTION": 13.57000618, "ECCENTRICITY": 0.0271577, "INCLINATION": 99.1936, "RA_OF_ASC_NODE": 19.3473, "ARG_OF_PERICENTER": 221.9649, "MEAN_ANOMALY": 196.1561, "EPHEMERIS_TYPE": 0, "CLASSIFICATION_TYPE": "U", "NORAD_CAT_ID": 29916, "ELEMENT_SET_NO": 999, "REV_AT_EPOCH": 93646, "BSTAR": 0.00065946, "MEAN_MOTION_DOT": 5.54e-06, "MEAN_MOTION_DDOT": 0}, "tle": {"line1": "1 29916U 99025HN  25361.02065997  .00000554  00000+0  65946-3 0  9993", "line2": "2 29916  99.1936  19.3473 0271577 221.9649 196.1561 13.57000618936463"}}, "geometry": {"type": "Point", "coordinates": [-37.92697191687927, 79.14506933532364]}}, {"type": "Feature", "properties": {"norad_id": 29917, "name": "FENGYUN 1C DEB", "group": "fengyun-1c-debris", "lat": 12.457772070239557, "lon": 43.900089310258345, "alt_km": 971.7813976208217, "timestamp": "2025-12-27T09:28:56.748604+00:00", "meta": {"OBJECT_NAME": "FENGYUN 1C DEB", "OBJECT_ID": "1999-025HP", "EPOCH": "2025-12-27T02:24:04.484160", "MEAN_MOTION": 13.70451103, "ECCENTRICITY": 0.0223659, "INCLINATION": 98.8766, "RA_OF_ASC_NODE": 221.649, "ARG_OF_PERICENTER": 86.2995, "MEAN_ANOMALY": 63.5651, "EPHEMERIS_TYPE": 0, "CLASSIFICATION_TYPE": "U", "NORAD_CAT_ID": 29917, "ELEMENT_SET_NO": 999, "REV_AT_EPOCH": 94327, "BSTAR": 0.0015027, "MEAN_MOTION_DOT": 1.549e-05, "MEAN_MOTION_DDOT": 0}, "tle": {"line1": "1 29917U 99025HP  25361.10005190  .00001549  00000+0  15027-2 0  9991", "line2": "2 29917  98.8766 221.6490 0223659  86.2995  63.5651 13.70451103943270"}}, "geometry": {"type": "Point", "coordinates": [43.900089310258345, 12.457772070239557]}}, {"type": "Feature", "properties": {"norad_id": 29918, "name": "FENGYUN 1C DEB", "group": "fengyun-1c-debris", "lat": 79.45082196755806, "lon": 27.35043771512132, "alt_km": 781.7180254336772, "timestamp": "2025-12-27T09:28:56.748614+00:00", "meta": {"OBJECT_NAME": "FENGYUN 1C DEB", "OBJECT_ID": "1999-025HQ", "EPOCH": "2025-12-27T04:20:16.302336", "MEAN_MOTION": 14.33712243, "ECCENTRICITY": 0.0013726, "INCLINATION": 98.8533, "RA_OF_ASC_NODE": 83.9499, "ARG_OF_PERICENTER": 270.9581, "MEAN_ANOMALY": 147.5387, "EPHEMERIS_TYPE": 0, "CLASSIFICATION_TYPE": "U", "NORAD_CAT_ID": 29918, "ELEMENT_SET_NO": 999, "REV_AT_EPOCH": 98001, "BSTAR": 0.0017451, "MEAN_MOTION_DOT": 4.806e-05, "MEAN_MOTION_DDOT": 0}, "tle": {"line1": "1 29918U 99025HQ  25361.18074424  .00004806  00000+0  17451-2 0  9998", "line2": "2 29918  98.8533  83.9499 0013726 270.9581 147.5387 14.33712243980013"}}, "geometry": {"type": "Point", "coordinates": [27.35043771512132, 79.45082196755806]}}]}